OBJECT_NAME,OBJECT_ID,EPOCH,MEAN_MOTION,ECCENTRICITY,INCLINATION,RA_OF_ASC_NODE,ARG_OF_PERICENTER,MEAN_ANOMALY,EPHEMERIS_TYPE,CLASSIFICATION_TYPE,NORAD_CAT_ID,ELEMENT_SET_NO,REV_AT_EPOCH,BSTAR,MEAN_MOTION_DOT,MEAN_MOTION_DDOT
APRIZESAT 2,2004-025A,2026-06-08T17:25:58.532160,14.38032744,.0104268,98.1008,326.1861,275.6986,83.2321,0,U,28366,999,15042,.67426E-4,.174E-5,0
SAUDICOMSAT 1,2004-025D,2026-06-08T18:24:02.130912,14.55467290,.0033114,98.5772,169.6709,50.8264,309.5866,0,U,28369,999,16290,.11007E-3,.433E-5,0
SAUDICOMSAT 2,2004-025E,2026-06-08T07:00:52.641216,14.49976201,.0054163,98.6642,171.2865,287.0157,72.5106,0,U,28370,999,15881,.85536E-4,.287E-5,0
APRIZESAT 1,2004-025G,2026-06-08T17:57:43.452576,14.51772975,.0044575,98.6304,170.2443,179.2893,180.8372,0,U,28372,999,16068,.67647E-4,.226E-5,0
NANOSAT-1,2004-049B,2026-06-08T15:37:53.439744,14.80143516,.0003283,98.2266,296.1042,338.1159,21.9911,0,U,28493,999,15418,.15682E-3,.1135E-4,0
SAUDICOMSAT 7,2007-012C,2026-06-08T17:14:10.064256,14.66102560,.0054763,98.3774,133.6767,222.0512,137.6481,0,U,31119,999,2119,.10473E-3,.534E-5,0
SAUDICOMSAT 6,2007-012E,2026-06-08T03:04:28.910496,14.62547488,.0071724,98.4094,126.4764,356.1140,3.9495,0,U,31121,999,1886,.15553038E-3,.765E-5,0
SAUDICOMSAT 5,2007-012H,2026-06-08T10:20:21.323904,14.68146202,.00479758,98.3485,134.1326,151.7459,208.6363,0,U,31124,999,2231,.11148546E-3,.598E-5,0
SAUDICOMSAT 3,2007-012J,2026-06-08T19:33:18.129024,14.70691952,.0040504,98.3139,135.0735,78.8638,281.7118,0,U,31125,999,2359,.14596E-3,.846E-5,0
SAUDICOMSAT 4,2007-012L,2026-06-08T19:39:45.074016,14.64503943,.00621,98.3978,132.2192,284.9352,74.4980,0,U,31127,999,2006,.10737E-3,.53E-5,0
APRIZESAT 4,2009-041D,2026-06-08T18:15:19.259712,14.83868698,.0042997,98.1412,234.9132,350.7880,9.2540,0,U,35684,999,91011,.91708E-4,.714E-5,0
APRIZESAT 3,2009-041F,2026-06-08T09:43:23.926656,14.96216040,.006274,98.2053,312.2095,95.9665,264.8710,0,U,35686,999,91506,.11558562E-3,.1288E-4,0
S-NET D,2018-014G,2026-06-08T13:19:07.455360,15.16591590,.00096357,97.5367,64.3993,56.2812,303.9338,0,U,43186,999,45745,.28942472E-3,.5592E-4,0
S-NET B,2018-014H,2026-06-07T23:20:15.845568,15.16556524,.0010253,97.5372,63.8067,53.5740,306.6437,0,U,43187,999,45736,.28229546E-3,.5447E-4,0
S-NET A,2018-014J,2026-06-07T16:42:26.764704,15.16591754,.00101615,97.5380,63.7393,54.8789,305.3395,0,U,43188,999,45732,.31877648E-3,.6167E-4,0
S-NET C,2018-014K,2026-06-08T16:50:54.947040,15.16555468,.00113,97.5400,64.8125,44.7747,315.4396,0,U,43189,999,45602,.27602E-3,.5326E-4,0
SALSAT,2020-068K,2026-06-08T15:24:23.045760,15.29677178,.0008838,97.8856,162.1872,342.8345,17.2593,0,U,46495,999,31405,.28424E-3,.8099E-4,0
OOV-CUBE (TUBSAT-30),2024-128F,2026-06-08T19:18:32.916096,15.02739260,.0045688,61.9950,254.8019,131.8693,228.6311,0,U,60240,999,10485,.20896E-3,.2654E-4,0
LPNTSAT-001 (IOD-1),2026-065A,2026-06-08T02:45:31.191840,15.18490907,.00175708,97.4030,39.8162,40.9414,319.3136,0,U,68408,999,1088,.1579722E-3,.3202E-4,0
