APRIZESAT 2             
1 28366U 04025A   26159.72637190  .00000174  00000+0  67426-4 0  9994
2 28366  98.1008 326.1861 0104268 275.6986  83.2321 14.38032744150421
SAUDICOMSAT 1           
1 28369U 04025D   26159.76669133  .00000433  00000+0  11007-3 0  9994
2 28369  98.5772 169.6709 0033114  50.8264 309.5866 14.55467290162901
SAUDICOMSAT 2           
1 28370U 04025E   26159.29227594  .00000287  00000+0  85536-4 0  9991
2 28370  98.6642 171.2865 0054163 287.0157  72.5106 14.49976201158813
APRIZESAT 1             
1 28372U 04025G   26159.74841959  .00000226  00000+0  67647-4 0  9996
2 28372  98.6304 170.2443 0044575 179.2893 180.8372 14.51772975160687
NANOSAT-1               
1 28493U 04049B   26159.65131296  .00001135  00000+0  15682-3 0  9993
2 28493  98.2266 296.1042 0003283 338.1159  21.9911 14.80143516154186
SAUDICOMSAT 7           
1 31119U 07012C   26159.71817204  .00000534  00000+0  10473-3 0  9997
2 31119  98.3774 133.6767 0054763 222.0512 137.6481 14.66102560 21191
SAUDICOMSAT 6           
1 31121U 07012E   26159.12811239  .00000765  00000+0  15553-3 0  9997
2 31121  98.4094 126.4764 0071724 356.1140   3.9495 14.62547488 18867
SAUDICOMSAT 5           
1 31124U 07012H   26159.43080236  .00000598  00000+0  11149-3 0  9990
2 31124  98.3485 134.1326 0047975 151.7459 208.6363 14.68146202 22314
SAUDICOMSAT 3           
1 31125U 07012J   26159.81479316  .00000846  00000+0  14596-3 0  9999
2 31125  98.3139 135.0735 0040504  78.8638 281.7118 14.70691952 23595
SAUDICOMSAT 4           
1 31127U 07012L   26159.81927169  .00000530  00000+0  10737-3 0  9998
2 31127  98.3978 132.2192 0062100 284.9352  74.4980 14.64503943 20061
APRIZESAT 4             
1 35684U 09041D   26159.76063958  .00000714  00000+0  91708-4 0  9997
2 35684  98.1412 234.9132 0042997 350.7880   9.2540 14.83868698910112
APRIZESAT 3             
1 35686U 09041F   26159.40513804  .00001288  00000+0  11559-3 0  9992
2 35686  98.2053 312.2095 0062740  95.9665 264.8710 14.96216040915060
S-NET D                 
1 43186U 18014G   26159.55494740  .00005592  00000+0  28942-3 0  9995
2 43186  97.5367  64.3993 0009635  56.2812 303.9338 15.16591590457458
S-NET B                 
1 43187U 18014H   26158.97240562  .00005447  00000+0  28230-3 0  9991
2 43187  97.5372  63.8067 0010253  53.5740 306.6437 15.16556524457367
S-NET A                 
1 43188U 18014J   26158.69614311  .00006167  00000+0  31878-3 0  9990
2 43188  97.5380  63.7393 0010161  54.8789 305.3395 15.16591754457322
S-NET C                 
1 43189U 18014K   26159.70202485  .00005326  00000+0  27602-3 0  9995
2 43189  97.5400  64.8125 0011300  44.7747 315.4396 15.16555468456020
SALSAT                  
1 46495U 20068K   26159.64193340  .00008099  00000+0  28424-3 0  9995
2 46495  97.8856 162.1872 0008838 342.8345  17.2593 15.29677178314059
OOV-CUBE (TUBSAT-30)    
1 60240U 24128F   26159.80454764  .00002654  00000+0  20896-3 0  9994
2 60240  61.9950 254.8019 0045688 131.8693 228.6311 15.02739260104851
LPNTSAT-001 (IOD-1)     
1 68408U 26065A   26159.11494435  .00003202  00000+0  15797-3 0  9997
2 68408  97.4030  39.8162 0017570  40.9414 319.3136 15.18490907 10889
